[{"OBJECT_NAME":"SENTINEL-2B","OBJECT_ID":"2017-013A","EPOCH":"2026-03-09T23:26:28.535424","MEAN_MOTION":14.30819717,"ECCENTRICITY":0.00011315,"INCLINATION":98.565,"RA_OF_ASC_NODE":145.1663,"ARG_OF_PERICENTER":94.2934,"MEAN_ANOMALY":265.8378,"EPHEMERIS_TYPE":0,"CLASSIFICATION_TYPE":"U","NORAD_CAT_ID":42063,"ELEMENT_SET_NO":999,"REV_AT_EPOCH":47045,"BSTAR":3.8552046e-5,"MEAN_MOTION_DOT":5.7e-7,"MEAN_MOTION_DDOT":0},{"OBJECT_NAME":"FENGYUN 1C DEB","OBJECT_ID":"1999-025RW","EPOCH":"2026-03-09T21:57:12.165696","MEAN_MOTION":14.07245135,"ECCENTRICITY":0.01634563,"INCLINATION":98.8139,"RA_OF_ASC_NODE":60.1769,"ARG_OF_PERICENTER":324.4726,"MEAN_ANOMALY":97.0874,"EPHEMERIS_TYPE":0,"CLASSIFICATION_TYPE":"U","NORAD_CAT_ID":30117,"ELEMENT_SET_NO":999,"REV_AT_EPOCH":98215,"BSTAR":0.00036110863,"MEAN_MOTION_DOT":6.4e-6,"MEAN_MOTION_DDOT":0}]
